NORAD_CAT_ID,OBJECT_NAME,OBJECT_TYPE,EPOCH,MEAN_MOTION,ECCENTRICITY,INCLINATION,RA_OF_ASC_NODE,ARG_OF_PERICENTER,MEAN_ANOMALY,BSTAR,MEAN_MOTION_DOT,MEAN_MOTION_DDOT,TLE_LINE0,TLE_LINE1,TLE_LINE2,SEMIMAJOR_AXIS,PERIOD,APOGEE,PERIGEE,DECAYED
53183.0,STARLINK-4268,PAYLOAD,2023-09-24 01:01:57,15.088521,0.0001261,53.2163,198.7274,97.9699,262.1436,0.00049709,7.635e-05,0.0,0 STARLINK-4268,1 53183U 22083BD  23267.04302354  .00007635  00000-0  49709-3 0  9999,2 53183  53.2163 198.7274 0001261  97.9699 262.1436 15.08852100 66960,6917.843,95.437,540.581,538.836,0.0
53183.0,STARLINK-4268,PAYLOAD,2023-09-24 05:48:06,15.08860684,0.0001157,53.216,197.835,101.0636,259.0487,0.00079941,0.00012465,0.0,0 STARLINK-4268,1 53183U 22083BD  23267.24173873  .00012465  00000-0  79941-3 0  9991,2 53183  53.2160 197.8350 0001157 101.0636 259.0487 15.08860684 66354,6917.817,95.436,540.483,538.882,0.0
53183.0,STARLINK-4268,PAYLOAD,2023-09-25 02:28:07,15.08840887,0.0001426,53.2165,193.9708,100.4366,259.6787,0.00012633,1.723e-05,0.0,0 STARLINK-4268,1 53183U 22083BD  23268.10286591  .00001723  00000-0  12633-3 0  9999,2 53183  53.2165 193.9708 0001426 100.4366 259.6787 15.08840887 67123,6917.878,95.437,540.729,538.756,0.0
53183.0,STARLINK-4268,PAYLOAD,2023-09-25 04:03:30,15.08853147,0.0001293,53.2161,193.6711,88.6171,271.4969,0.00049721,7.637e-05,0.0,0 STARLINK-4268,1 53183U 22083BD  23268.16910391  .00007637  00000-0  49721-3 0  9995,2 53183  53.2161 193.6711 0001293  88.6171 271.4969 15.08853147 67131,6917.84,95.437,540.6,538.811,0.0
53183.0,STARLINK-4268,PAYLOAD,2023-09-25 12:00:26,15.08852598,0.0001307,53.216,192.1856,100.6671,259.4468,0.00058445,9.029e-05,0.0,0 STARLINK-4268,1 53183U 22083BD  23268.50030421  .00009029  00000-0  58445-3 0  9990,2 53183  53.2160 192.1856 0001307 100.6671 259.4468 15.08852598 66543,6917.842,95.437,540.611,538.803,0.0
53183.0,STARLINK-4268,PAYLOAD,2023-09-26 02:18:53,15.08879092,0.0001301,53.2162,189.509,96.5295,263.5845,0.0012474,0.00019641,0.0,0 STARLINK-4268,1 53183U 22083BD  23269.09645436  .00019641  00000-0  12474-2 0  9995,2 53183  53.2162 189.5090 0001301  96.5295 263.5845 15.08879092 67278,6917.761,95.435,540.526,538.726,0.0
53183.0,STARLINK-4268,PAYLOAD,2023-09-26 18:12:45,15.08842605,0.0001713,53.2155,186.5356,82.5514,277.5673,0.00018508,2.659e-05,0.0,0 STARLINK-4268,1 53183U 22083BD  23269.75886284  .00002659  00000-0  18508-3 0  9992,2 53183  53.2155 186.5356 0001713  82.5514 277.5673 15.08842605 67373,6917.872,95.437,540.922,538.552,0.0
53183.0,STARLINK-4268,PAYLOAD,2023-09-27 02:09:41,15.08829502,0.0001536,53.2156,185.0463,84.4112,275.7055,0.00010836,1.437e-05,0.0,0 STARLINK-4268,1 53183U 22083BD  23270.09006784  .00001437  00000-0  10836-3 0  9999,2 53183  53.2156 185.0463 0001536  84.4112 275.7055 15.08829502 67426,6917.912,95.438,540.84,538.715,0.0
53183.0,STARLINK-4268,PAYLOAD,2023-09-27 11:42:01,15.08818146,0.0001635,53.2158,183.262,93.1921,266.9258,9.9657e-05,1.297e-05,0.0,0 STARLINK-4268,1 53183U 22083BD  23270.48751507  .00001297  00000-0  99657-4 0  9995,2 53183  53.2158 183.2620 0001635  93.1921 266.9258 15.08818146 66842,6917.947,95.439,540.943,538.681,0.0
53183.0,STARLINK-4268,PAYLOAD,2023-09-28 00:25:06,15.08825872,0.0001591,53.2164,180.8832,92.2769,267.8405,9.067e-05,1.155e-05,0.0,0 STARLINK-4268,1 53183U 22083BD  23271.01743976  .00001155  00000-0  90670-4 0  9995,2 53183  53.2164 180.8832 0001591  92.2769 267.8405 15.08825872 66925,6917.924,95.438,540.889,538.688,0.0
53183.0,STARLINK-4268,PAYLOAD,2023-09-29 17:45:07,15.08857806,0.0001503,53.2158,173.1505,99.938,260.1782,0.00046458,7.117e-05,0.0,0 STARLINK-4268,1 53183U 22083BD  23272.73967124  .00007117  00000-0  46458-3 0  9996,2 53183  53.2158 173.1505 0001503  99.9380 260.1782 15.08857806 67822,6917.826,95.436,540.731,538.651,0.0
53183.0,STARLINK-4268,PAYLOAD,2023-09-30 03:17:25,15.08885305,0.0001367,53.2161,171.3698,92.6367,267.4782,0.00098345,0.00015418,0.0,0 STARLINK-4268,1 53183U 22083BD  23273.13710004  .00015418  00000-0  98345-3 0  9999,2 53183  53.2161 171.3698 0001367  92.6367 267.4782 15.08885305 67883,6917.742,95.435,540.553,538.661,0.0
53183.0,STARLINK-4268,PAYLOAD,2023-09-30 04:52:48,15.08889214,0.0001369,53.216,171.0723,92.7817,267.3332,0.0010388,0.00016305,0.0,0 STARLINK-4268,1 53183U 22083BD  23273.20333745  .00016305  00000-0  10388-2 0  9996,2 53183  53.2160 171.0723 0001369  92.7817 267.3332 15.08889214 67255,6917.73,95.434,540.542,538.648,0.0
53183.0,STARLINK-4268,PAYLOAD,2023-09-30 17:35:54,15.08823704,0.0001336,53.216,168.6938,76.0356,284.0785,-2.6765e-06,-3.3e-06,0.0,0 STARLINK-4268,1 53183U 22083BD  23273.73327064 -.00000330  00000-0 -26765-5 0  9993,2 53183  53.2160 168.6938 0001336  76.0356 284.0785 15.08823704 67971,6917.93,95.439,540.719,538.871,0.0
53183.0,STARLINK-4268,PAYLOAD,2023-10-01 09:29:46,15.088336,0.0001115,53.2157,165.72,79.8813,280.2305,0.0016152,0.00025507,0.0,0 STARLINK-4268,1 53183U 22083BD  23274.39567576  .00025507  00000-0  16152-2 0  9997,2 53183  53.2157 165.7200 0001115  79.8813 280.2305 15.08833600 68075,6917.9,95.438,540.536,538.994,0.0
53183.0,STARLINK-4268,PAYLOAD,2023-10-01 12:40:32,15.0884371,0.0001339,53.2156,165.1253,79.7468,280.3675,0.001445,0.00022786,0.0,0 STARLINK-4268,1 53183U 22083BD  23274.52815583  .00022786  00000-0  14450-2 0  9991,2 53183  53.2156 165.1253 0001339  79.7468 280.3675 15.08843710 67454,6917.869,95.437,540.66,538.808,0.0
53183.0,STARLINK-4268,PAYLOAD,2023-10-01 20:37:27,15.08885688,0.0001202,53.2154,163.6391,76.4469,283.6657,0.0026185,0.00041684,0.0,0 STARLINK-4268,1 53183U 22083BD  23274.85934759  .00041684  00000-0  26185-2 0  9990,2 53183  53.2154 163.6391 0001202  76.4469 283.6657 15.08885688 67504,6917.741,95.435,540.437,538.774,0.0
53183.0,STARLINK-4268,PAYLOAD,2023-10-02 01:23:36,15.08911236,0.0001192,53.2155,162.7465,79.8539,280.2588,0.0032582,0.00052051,0.0,0 STARLINK-4268,1 53183U 22083BD  23275.05805911  .00052051  00000-0  32582-2 0  9998,2 53183  53.2155 162.7465 0001192  79.8539 280.2588 15.08911236 68179,6917.663,95.433,540.352,538.703,0.0
53183.0,STARLINK-4268,PAYLOAD,2023-10-02 09:20:31,15.08841887,0.0001507,53.2153,161.2593,92.2782,267.8383,-0.0019456,-0.0003112,0.0,0 STARLINK-4268,1 53183U 22083BD  23275.38925920 -.00031120  00000-0 -19456-2 0  9998,2 53183  53.2153 161.2593 0001507  92.2782 267.8383 15.08841887 68226,6917.875,95.437,540.782,538.697,0.0
53183.0,STARLINK-4268,PAYLOAD,2023-10-02 20:28:14,15.08832588,0.0001418,53.2147,159.178,98.6926,261.4227,0.00075029,0.00011671,0.0,0 STARLINK-4268,1 53183U 22083BD  23275.85294506  .00011671  00000-0  75029-3 0  9995,2 53183  53.2147 159.1780 0001418  98.6926 261.4227 15.08832588 67655,6917.903,95.438,540.749,538.787,0.0
53183.0,STARLINK-4268,PAYLOAD,2023-10-03 01:14:24,15.08833431,0.0001449,53.2147,158.2861,97.3177,262.798,0.0015473,0.00024419,0.0,0 STARLINK-4268,1 53183U 22083BD  23276.05166689  .00024419  00000-0  15473-2 0  9998,2 53183  53.2147 158.2861 0001449  97.3177 262.7980 15.08833431 68326,6917.9,95.438,540.768,538.763,0.0
53183.0,STARLINK-4268,PAYLOAD,2023-10-03 09:11:20,15.0883192,0.0001558,53.2145,156.7993,89.0538,271.0632,0.001187,0.00018649,0.0,0 STARLINK-4268,1 53183U 22083BD  23276.38287218  .00018649  00000-0  11870-2 0  9991,2 53183  53.2145 156.7993 0001558  89.0538 271.0632 15.08831920 68376,6917.905,95.438,540.848,538.692,0.0
53183.0,STARLINK-4268,PAYLOAD,2023-10-03 21:54:25,15.0883317,0.0001505,53.2145,154.4203,92.9046,267.2119,0.00081462,0.00012698,0.0,0 STARLINK-4268,1 53183U 22083BD  23276.91279855  .00012698  00000-0  81462-3 0  9991,2 53183  53.2145 154.4203 0001505  92.9046 267.2119 15.08833170 67818,6917.901,95.438,540.807,538.725,0.0
53183.0,STARLINK-4268,PAYLOAD,2023-10-04 01:05:12,15.08838775,0.0001421,53.2143,153.826,91.1413,268.9742,0.0019346,0.00030634,0.0,0 STARLINK-4268,1 53183U 22083BD  23277.04527983  .00030634  00000-0  19346-2 0  9995,2 53183  53.2143 153.8260 0001421  91.1413 268.9742 15.08838775 68477,6917.884,95.438,540.732,538.766,0.0
53183.0,STARLINK-4268,PAYLOAD,2023-10-04 09:02:08,15.08841123,0.0001549,53.2142,152.3385,88.0801,272.0368,0.0011976,0.00018824,0.0,0 STARLINK-4268,1 53183U 22083BD  23277.37648193  .00018824  00000-0  11976-2 0  9996,2 53183  53.2142 152.3385 0001549  88.0801 272.0368 15.08841123 68522,6917.877,95.437,540.814,538.67,0.0
53183.0,STARLINK-4268,PAYLOAD,2023-10-04 21:45:12,15.08861948,0.0001461,53.2142,149.9597,87.5442,272.5718,0.0014704,0.00023205,0.0,0 STARLINK-4268,1 53183U 22083BD  23277.90639774  .00023205  00000-0  14704-2 0  9991,2 53183  53.2142 149.9597 0001461  87.5442 272.5718 15.08861948 67965,6917.813,95.436,540.689,538.668,0.0
53183.0,STARLINK-4268,PAYLOAD,2023-10-05 20:00:36,15.08850438,0.0001211,53.2139,145.7961,105.5356,254.577,0.001268,0.00019956,0.0,0 STARLINK-4268,1 53183U 22083BD  23278.83375649  .00019956  00000-0  12680-2 0  9991,2 53183  53.2139 145.7961 0001211 105.5356 254.5770 15.08850438 68745,6917.848,95.437,540.551,538.876,0.0
53183.0,STARLINK-4268,PAYLOAD,2023-10-05 21:35:59,15.08844558,0.0001195,53.2144,145.4987,100.0661,260.0466,0.00091844,0.00014361,0.0,0 STARLINK-4268,1 53183U 22083BD  23278.89999680  .00014361  00000-0  91844-3 0  9999,2 53183  53.2144 145.4987 0001195 100.0661 260.0466 15.08844558 68117,6917.866,95.437,540.558,538.905,0.0
53183.0,STARLINK-4268,PAYLOAD,2023-10-06 08:43:41,15.08830368,0.000156,53.2146,143.4171,86.7323,273.3847,0.00030741,4.607e-05,0.0,0 STARLINK-4268,1 53183U 22083BD  23279.36367985  .00004607  00000-0  30741-3 0  9990,2 53183  53.2146 143.4171 0001560  86.7323 273.3847 15.08830368 68825,6917.91,95.438,540.854,538.696,0.0
53183.0,STARLINK-4268,PAYLOAD,2023-10-06 21:26:47,15.08828582,0.0001288,53.2154,141.0382,89.9399,270.1741,0.00076377,0.00011885,0.0,0 STARLINK-4268,1 53183U 22083BD  23279.89360745  .00011885  00000-0  76377-3 0  9996,2 53183  53.2154 141.0382 0001288  89.9399 270.1741 15.08828582 68268,6917.915,95.438,540.671,538.889,0.0
